ONEWEB-0235             
1 48771U 21045E   25010.23416623 -.00000117  00000+0 -34556-3 0  9990
2 48771  87.9069   3.3126 0001239 103.2135 256.9134 13.15547011175622
ONEWEB-0242             
1 48772U 21045F   25010.37994644 -.00000090  00000+0 -27262-3 0  9996
2 48772  87.9068   3.2699 0001551  88.4808 271.6499 13.15547370175686
ONEWEB-0241             
1 48773U 21045G   25010.44333435 -.00000005  00000+0 -47218-4 0  9990
2 48773  87.9079   3.3245 0001794 101.4932 258.6399 13.15549286175604
ONEWEB-0243             
1 48774U 21045H   25010.39895642  .00000027  00000+0  38459-4 0  9997
2 48774  87.9079   3.2935 0001267  96.0835 264.0439 13.15549963175626
ONEWEB-0222             
1 48775U 21045J   25010.30626407 -.00000059  00000+0 -18983-3 0  9996
2 48775  87.9067   3.2932 0001712  94.9106 265.2219 13.15541911175651
ONEWEB-0244             
1 48776U 21045K   25010.25634733  .00000088  00000+0  20067-3 0  9998
2 48776  87.9066   3.2828 0001607  86.1868 273.9445 13.15546674176217
ONEWEB-0247             
1 48777U 21045L   25010.40531974  .00000086  00000+0  19355-3 0  9995
2 48777  87.9074   3.3102 0000931 120.0692 240.0531 13.15549774175679
ONEWEB-0245             
1 48778U 21045M   25010.40052756  .00000067  00000+0  14377-3 0  9990
2 48778  87.9067   3.2876 0001834  96.4544 263.6796 13.15545906175648
